GSAT0233 (GALILEO 33)   
1 67160U 25302A   25352.14605887 -.00000007  00000+0  00000+0 0  9994
2 67160  54.2406 107.2544 0008423 237.6458 122.2317  1.72906186    28
ARIANE 6 R/B            
1 67161U 25302B   26014.31699228 -.00000032  00000+0  00000+0 0  9990
2 67161  54.2437 106.4249 0005217 261.0325  98.9126  1.72972424   506
GSAT0234 (GALILEO 34)   
1 67162U 25302C   25356.18244914  .00000006  00000+0  00000+0 0  9992
2 67162  54.2447 107.1379 0000312 196.8367 159.4994  1.73130437   127
STARLINK-35755          
1 67163U 25303A   26016.58336806  .00081823  00000+0  19454-2 0  9996
2 67163  42.9984 248.6467 0002317 256.1469 115.9879 15.40694623  5773
STARLINK-36201          
1 67164U 25303B   26016.58336806  .00057817  00000+0  13826-2 0  9990
2 67164  42.9985 248.6146 0001625 255.6957 128.9500 15.40661992  6067
STARLINK-36186          
1 67165U 25303C   26016.58336806  .00055182  00000+0  13202-2 0  9992
2 67165  42.9985 248.5237 0001358 258.4706 163.4876 15.40665060  6064
STARLINK-36174          
1 67166U 25303D   26016.58336806  .00056612  00000+0  13541-2 0  9998
2 67166  42.9985 248.5855 0001564 253.9092 143.1698 15.40663951  5904
STARLINK-36198          
1 67167U 25303E   26016.58336806  .00053906  00000+0  12901-2 0  9991
2 67167  42.9986 248.4942 0001713 256.0405 178.3548 15.40665724  6062
STARLINK-35903          
1 67168U 25303F   26016.58336806  .00058759  00000+0  14048-2 0  9997
2 67168  42.9986 248.5541 0001367 261.5963 147.9313 15.40662494  6034
STARLINK-35839          
1 67169U 25303G   26016.58336806  .00052479  00000+0  12562-2 0  9990
2 67169  42.9986 248.4336 0001937 260.8359 198.4423 15.40667759  5772
STARLINK-35863          
1 67170U 25303H   26016.58336806  .00051626  00000+0  12360-2 0  9991
2 67170  42.9988 248.3734 0001952 263.1626 220.9953 15.40669180  6036
STARLINK-35771          
1 67171U 25303J   26016.58336806  .00053303  00000+0  12758-2 0  9997
2 67171  42.9984 248.4640 0001642 256.3187 190.5194 15.40666749  5779
